{
  "norad_id": 61971,
  "name": "STARLINK-32610",
  "history": [
    {
      "epoch": "2026-03-28T00:56:11.239872Z",
      "apogee_km": 483.97582529073406,
      "perigee_km": 481.9046033012828,
      "latitude_deg": -5.919565340165087e-06,
      "longitude_deg": -123.09543356479878,
      "height_km": 482.78780237785406,
      "semi_major_axis_km": 6861.077214296009,
      "eccentricity": 0.00015094,
      "inclination_deg": 43.0016,
      "raan_deg": 76.4166,
      "arg_perigee_deg": 266.0891,
      "mean_anomaly_deg": 93.9788,
      "mean_motion_rev_day": 15.27616363
    },
    {
      "epoch": "2026-03-29T05:10:58.833408Z",
      "apogee_km": 484.105240063629,
      "perigee_km": 482.1388032280265,
      "latitude_deg": -2.997329637019276e-05,
      "longitude_deg": 165.39788937702536,
      "height_km": 482.787305771399,
      "semi_major_axis_km": 6861.2590216458275,
      "eccentricity": 0.0001433,
      "inclination_deg": 43.0013,
      "raan_deg": 69.7683,
      "arg_perigee_deg": 276.5176,
      "mean_anomaly_deg": 83.5512,
      "mean_motion_rev_day": 15.27555646
    },
    {
      "epoch": "2026-03-30T00:00:52.352352Z",
      "apogee_km": 484.0796182400418,
      "perigee_km": 482.0149506651642,
      "latitude_deg": 4.8007008797244335e-05,
      "longitude_deg": -122.27610625333311,
      "height_km": 482.8463570258061,
      "semi_major_axis_km": 6861.184284452603,
      "eccentricity": 0.00015046,
      "inclination_deg": 43.0048,
      "raan_deg": 65.3406,
      "arg_perigee_deg": 268.7923,
      "mean_anomaly_deg": 91.2757,
      "mean_motion_rev_day": 15.27580605
    },
    {
      "epoch": "2026-03-31T05:49:50.243232Z",
      "apogee_km": 483.832830917956,
      "perigee_km": 482.01327779154144,
      "latitude_deg": -2.2960523658300597e-05,
      "longitude_deg": 142.23820464324064,
      "height_km": 482.61633906887533,
      "semi_major_axis_km": 6861.060054354749,
      "eccentricity": 0.0001326,
      "inclination_deg": 43.0028,
      "raan_deg": 58.3207,
      "arg_perigee_deg": 275.277,
      "mean_anomaly_deg": 84.793,
      "mean_motion_rev_day": 15.27622094
    },
    {
      "epoch": "2026-04-01T06:56:20.819904Z",
      "apogee_km": 484.2045441883947,
      "perigee_km": 481.93348499756394,
      "latitude_deg": 1.1602011329820427e-05,
      "longitude_deg": 118.67337092972045,
      "height_km": 483.00236169074043,
      "semi_major_axis_km": 6861.206014592979,
      "eccentricity": 0.0001655,
      "inclination_deg": 43.0036,
      "raan_deg": 52.4144,
      "arg_perigee_deg": 262.1,
      "mean_anomaly_deg": 97.9664,
      "mean_motion_rev_day": 15.27573348
    },
    {
      "epoch": "2026-04-02T04:54:32.635296Z",
      "apogee_km": 484.1971394764869,
      "perigee_km": 481.7608944011927,
      "latitude_deg": -5.468463660373049e-05,
      "longitude_deg": 143.05029673316577,
      "height_km": 483.12447900149357,
      "semi_major_axis_km": 6861.1160169388395,
      "eccentricity": 0.00017754,
      "inclination_deg": 43.0032,
      "raan_deg": 47.2429,
      "arg_perigee_deg": 252.4053,
      "mean_anomaly_deg": 107.6604,
      "mean_motion_rev_day": 15.27603404
    }
  ]
}